NOAA 2 (ITOS-D)
1 06235U 72082A   25255.50211449 -.00000048  00000-0 -86635-5 0  9997
2 06235 102.0238 265.8786 0004016 345.1385 183.0823 12.53204346420164
SOLRAD-7B
1 01291U 65016D   25255.82549399 -.00000014  00000-0  28285-4 0  9994
2 01291  70.0777 105.9240 0018814 129.6297 230.6473 13.94925911 78028
OSCAR-7 (AO-7)
1 07530U 74089B   25255.93661181 -.00000051  00000-0 -27296-4 0  9995
2 07530 101.9982 261.2283 0011953 301.4526 172.6487 12.53691465325772
UOSAT-2 (UO-11)
1 14781U 84021B   25255.85903857  .00001269  00000-0  13840-3 0  9997
2 14781  97.7652 220.4066 0008581  32.1499 328.0240 14.89659971215825
FLTSATCOM-7 (USA-20)
1 17181U 86096A   25255.60044819 -.00000225  00000-0  00000-0 0  9998
2 17181  12.9272 341.8222 0039749 320.2180  79.2865  0.98931264149220
FLTSATCOM-8 (USA-46)
1 20253U 89077A   25255.68887050 -.00000371  00000-0  00000-0 0  9996
2 20253  12.4995 352.8150 0004029 204.6294 168.1902  1.00277502257780
OSCAR 16 (PACSAT)
1 20439U 90005D   25255.81862139  .00000080  00000-0  45651-4 0  9992
2 20439  98.8858 279.5380 0009987 330.4941 206.9603 14.33807071862182
LUSAT (LO-19)
1 20442U 90005G   25255.49144618  .00000085  00000-0  47396-4 0  9998
2 20442  98.9009 264.4394 0010664 303.5585  56.4579 14.33988689862592
UFO 2 (USA 95)
1 22787U 93056A   25253.95135222  .00000124  00000-0  00000-0 0  9992
2 22787  11.7987   5.0425 0003390 222.9556 133.3623  1.00272737115741
EYESAT-1 (AO-27)
1 22825U 93061C   25255.88217175  .00000061  00000-0  40483-4 0  9996
2 22825  98.7278 317.8733 0008271 186.2819 173.8261 14.30827872667343
ITAMSAT (IO-26) 
1 22826U 93061D   25255.59377761  .00000080  00000-0  47094-4 0  9999
2 22826  98.7226 317.4749 0009090 171.6750 188.4585 14.31244117667608
UFO 3 (USA 104)
1 23132U 94035A   25254.08854610 -.00000025  00000-0  00000-0 0  9990
2 23132  12.2425   7.3578 0004683 214.3336 161.5299  1.00246945128906
RADIO ROSTO (RS-15)
1 23439U 94085A   25255.96240663 -.00000051  00000-0 -23753-3 0  9993
2 23439  64.8198  31.5525 0147354  56.0395 305.4435 11.27581722264644
UFO 4 (USA 108)
1 23467U 95003A   25255.54991876 -.00000027  00000-0  00000-0 0  9997
2 23467   9.6771  14.1096 0003962 160.4277 187.5236  1.00272155112168
UFO 7 (USA 127)
1 23967U 96042A   25255.15444024 -.00000190  00000-0  00000-0 0  9992
2 23967  10.8477  18.5221 0007218 128.8073 237.3374  1.00275958106702
JAS-2 (FO-29)
1 24278U 96046B   25255.90814890 -.00000025  00000-0  73816-5 0  9994
2 24278  98.5592 137.1949 0350905  95.5604 268.5658 13.53253545435668
UFO 8 (USA 138)
1 25258U 98016A   25255.75505311 -.00000358  00000-0  00000-0 0  9999
2 25258  10.7929  24.3711 0005380 229.7068 137.1468  1.00342933101085
TECHSAT-1B (GO-32)
1 25397U 98043D   25255.66729665  .00000059  00000-0  45769-4 0  9995
2 25397  98.9811 236.8158 0000623 351.3238   8.7930 14.24337926411827
ISS (ZARYA)
1 25544U 98067A   25255.80472925  .00007227  00000-0  13327-3 0  9993
2 25544  51.6331 232.7995 0004300 332.1645  27.9114 15.50259265528750
UFO 10 (USA 146)
1 25967U 99063A   25255.72506633 -.00000193  00000-0  00000-0 0  9991
2 25967   9.7733  28.6090 0004595 184.1319  17.3537  1.00272673 94563
PCSAT (NO-44)
1 26931U 01043C   25255.71875164  .00000120  00000-0  75834-4 0  9991
2 26931  67.0488 241.8466 0007042 275.3937  84.6361 14.31776843250724
PROBA-1
1 26958U 01049B   25255.94006491  .00002796  00000-0  19132-3 0  9999
2 26958  97.9556 250.1864 0056386 341.0496  18.8631 15.05727482301871
SAUDISAT-1C (SO-50)
1 27607U 02058C   25255.78348264  .00001185  00000-0  16264-3 0  9995
2 27607  64.5509 266.6038 0066098 313.9922  45.5745 14.81875792223337
CUTE-1 (CO-55)
1 27844U 03031E   25255.74573957  .00000245  00000-0  12553-3 0  9998
2 27844  98.6789 262.8051 0008415 272.0060  88.0155 14.24065510152185
CUBESAT XI-IV (CO-57)
1 27848U 03031J   25255.73889612  .00000203  00000-0  10860-3 0  9992
2 27848  98.6819 262.7316 0008414 292.0429  67.9856 14.23390414151902
MOZHAYETS-4 (RS-22)
1 27939U 03042A   25255.96125683  .00000877  00000-0  14609-3 0  9993
2 27939  98.3368  67.7793 0012506  69.9310  90.3155 14.72578164174730
UFO 11 (USA 174)
1 28117U 03057A   25255.88761277 -.00000111  00000-0  00000-0 0  9993
2 28117   8.6648  35.0838 0003783 156.1308 196.1015  1.00271837 79665
CUBESAT XI-V (CO-58)
1 28895U 05043F   25255.87455727  .00001258  00000-0  21160-3 0  9997
2 28895  98.2633  41.5038 0014503   9.6838 350.4645 14.71331286 60956
CAPE-1
1 31130U 07012P   25255.61671610  .00000960  00000-0  18542-3 0  9993
2 31130  98.4079 218.4990 0084153 216.6845 142.8578 14.63692254977722
CUTE-1.7+APD II (CO-65)
1 32785U 08021C   25255.89034698  .00003745  00000-0  26557-3 0  9999
2 32785  97.7949 227.8654 0007830 244.9933 115.0481 15.05375851943419
SEEDS-II (CO-66)
1 32791U 08021J   25255.91239386  .00010529  00000-0  47743-3 0  9998
2 32791  97.7370 238.2675 0003984 157.0882 203.0531 15.21023161944974
YUBILEINY (RS-30)
1 32953U 08025A   25256.01099836  .00000017  00000-0  52449-4 0  9999
2 32953  82.5072 167.8448 0018444 194.5292 165.5260 12.43168047785257
KKS-1 (KISEKI)
1 33499U 09002H   25255.87401053  .00001188  00000-0  15689-3 0  9996
2 33499  98.1126 169.2153 0009533 105.3132 254.9135 14.81904382895101
SWISSCUBE
1 35932U 09051B   25255.66191671  .00000947  00000-0  20072-3 0  9997
2 35932  98.4172 153.6316 0007179   7.9561 352.1752 14.61551447848601
BEESAT
1 35933U 09051C   25255.67534324  .00000792  00000-0  17172-3 0  9990
2 35933  98.4103 153.8282 0005927  23.1560 336.9906 14.60932834848656
ITUPSAT-1
1 35935U 09051E   25255.77091063  .00000725  00000-0  16223-3 0  9993
2 35935  98.4195 153.3859 0008305  27.7999 332.3643 14.59716581848254
PROBA-2
1 36037U 09059B   25255.91598616  .00000149  00000-0  45541-4 0  9993
2 36037  98.2410  78.2211 0014281  59.8443 300.4167 14.54609048841213
XIWANG-1 (HOPE-1)
1 36122U 09072B   25255.84608511 -.00000020  00000-0  63661-4 0  9993
2 36122 100.3585 209.6451 0007778 143.1116 217.0533 13.16427909756518
EWS-G2 (GOES-15)
1 36411U 10008A   25255.89101432  .00000031  00000-0  00000-0 0  9995
2 36411   0.5713  85.4074 0005091 135.7353 153.1293  1.00270330 56857
TISAT-1
1 36799U 10035E   25255.47054754  .00010565  00000-0  50940-3 0  9996
2 36799  98.0518 175.5470 0005243 114.7370 245.4409 15.18904942825368
HORYU-2
1 38340U 12025D   25255.79794806  .00002794  00000-0  30849-3 0  9996
2 38340  98.1873  13.5014 0008641  15.9414 344.2072 14.88289793707424
AAUSAT-3
1 39087U 13009B   25255.46092025  .00000529  00000-0  18377-3 0  9992
2 39087  98.3684  80.7125 0011051 331.7422  28.3166 14.39368149657215
STRAND-1
1 39090U 13009E   25255.93868834  .00000231  00000-0  92374-4 0  9997
2 39090  98.3856  78.1536 0008407 347.6006  12.4972 14.36886241657249
CUBEBUG-1 (CAPITAN BETO)
1 39153U 13018D   25255.87201329  .00002949  00000-0  27909-3 0  9999
2 39153  98.1328  39.5903 0011963 349.5301  10.5667 14.94421104669600
PROBA-V
1 39159U 13021A   25255.69794814  .00000057  00000-0  42874-4 0  9992
2 39159  98.3297 243.4972 0003371 211.6375 148.4602 14.23511770641633
ZACUBE-1 (TSHEPISOSAT)
1 39417U 13066B   25255.83351209  .00004847  00000-0  41222-3 0  9997
2 39417  97.7893 212.4331 0045924  93.6602 266.9873 14.97485075639161
TRITON-1
1 39427U 13066M   25255.98106964  .00002449  00000-0  30996-3 0  9992
2 39427  97.8283 167.3312 0095190  57.2670 303.7673 14.79541168633061
DELFI-N3XT
1 39428U 13066N   25255.72461867  .00007313  00000-0  72270-3 0  9997
2 39428  97.8285 172.3510 0084655  47.9456 312.8924 14.89530717633230
GOMX-1
1 39430U 13066Q   25255.85597545  .00001421  00000-0  22629-3 0  9994
2 39430  97.6725 108.6485 0130304 247.2322 111.5073 14.67988200629204
HUMSAT-D
1 39433U 13066T   25255.74231631  .00036876  00000-0  86779-3 0  9994
2 39433  97.5064 253.7594 0012837 125.5392 234.7054 15.41789750643700
VELOX-PII
1 39438U 13066Y   25255.85186121  .00002137  00000-0  21841-3 0  9996
2 39438  97.8365 202.9897 0055560 179.0328 181.1008 14.90526952636484
CUBEBUG-2 (LO-74)
1 39440U 13066AA  25255.82046831  .00002303  00000-0  23322-3 0  9990
2 39440  97.8551 199.7881 0059769 224.5086 135.1322 14.90654504635620
FUNCUBE-1 (AO-73)
1 39444U 13066AE  25255.62348119  .00006562  00000-0  47488-3 0  9996
2 39444  97.7930 218.0164 0043609  67.3519 293.2309 15.03580867637867
UWE-3
1 39446U 13066AG  25255.82374391  .00003219  00000-0  30196-3 0  9995
2 39446  97.8319 206.2988 0053009 160.7905 199.5330 14.93656523636127
UNISAT-6
1 40012U 14033C   25255.18814498  .00002473  00000-0  28554-3 0  9993
2 40012  97.7547  48.8377 0046066 263.7899  95.8067 14.85766595604844
DUCHIFAT-1
1 40021U 14033M   25254.55028881  .00023140  00000-0  73533-3 0  9997
2 40021  98.0920 277.3093 0006946   6.6227 353.5103 15.32625714612696
FUNCUBE-3 (EO-79)
1 40025U 14033R   25255.69578218  .00006695  00000-0  39408-3 0  9990
2 40025  98.0922 243.7106 0012460  93.4197 266.8457 15.11933284611005
SMAP
1 40376U 15003A   25255.95120960  .00000363  00000-0  79287-4 0  9999
2 40376  98.1311 261.9566 0001460  86.0084 274.1285 14.63416016567073
LILACSAT-2
1 40908U 15049K   25256.00161001  .00009809  00000-0  23890-3 0  9990
2 40908  97.5031 278.7751 0009430 164.9032 195.2498 15.41094672552915
LAPAN-A2 (IO-86)
1 40931U 15052B   25151.18580175  .00001241  00000-0  78118-4 0  9996
2 40931   6.0006  24.0987 0012733 338.8432  21.1169 14.78805930523159
LQSAT
1 40958U 15057A   25255.96874730  .00000553  00000-0  86579-4 0  9999
2 40958  97.6596 258.3976 0018828  92.3308 268.0058 14.76210202534402
PRATHAM
1 41783U 16059A   25255.48924555  .00000704  00000-0  13420-3 0  9999
2 41783  97.8274 259.8134 0032235  25.5786 334.7005 14.66568707478801
ALSAT-1N
1 41789U 16059G   25256.02207074  .00000740  00000-0  13498-3 0  9991
2 41789  97.8060 266.8524 0026133 357.6334   2.4744 14.68556956479310
CAS-2T & KS-1Q
1 41847U 16066G   25255.91504484  .00000788  00000-0  12208-3 0  9996
2 41847  98.4130 329.5300 0344167 249.9542 106.4296 14.43708396464774
